NORAD_CAT_ID,OBJECT_NAME,OBJECT_TYPE,EPOCH,MEAN_MOTION,ECCENTRICITY,INCLINATION,RA_OF_ASC_NODE,ARG_OF_PERICENTER,MEAN_ANOMALY,BSTAR,MEAN_MOTION_DOT,MEAN_MOTION_DDOT,TLE_LINE0,TLE_LINE1,TLE_LINE2,SEMIMAJOR_AXIS,PERIOD,APOGEE,PERIGEE,DECAYED
53784.0,STARLINK-4687,PAYLOAD,2023-04-23 13:53:50,15.08835082,0.0001231,53.2175,312.7783,87.4262,272.6871,3.2648e-05,2.32e-06,0.0,0 STARLINK-4687,1 53784U 22111M   23113.57906131  .00000232  00000-0  32648-4 0  9990,2 53784  53.2175 312.7783 0001231  87.4262 272.6871 15.08835082 34201,6917.895,95.438,540.612,538.909,0.0
53784.0,STARLINK-4687,PAYLOAD,2023-04-24 05:47:40,15.08859702,9.13e-05,53.2168,309.8042,91.8465,268.2632,0.00027419,4.081e-05,0.0,0 STARLINK-4687,1 53784U 22111M   23114.24144421  .00004081  00000-0  27419-3 0  9996,2 53784  53.2168 309.8042 0000913  91.8465 268.2632 15.08859702 34300,6917.82,95.436,540.317,539.054,0.0
53784.0,STARLINK-4687,PAYLOAD,2023-04-24 15:19:59,15.08850777,0.0001281,53.2173,308.0226,84.031,276.0828,0.00018955,2.731e-05,0.0,0 STARLINK-4687,1 53784U 22111M   23114.63888843  .00002731  00000-0  18955-3 0  9997,2 53784  53.2173 308.0226 0001281  84.0310 276.0828 15.08850777 34366,6917.847,95.437,540.599,538.826,0.0
53784.0,STARLINK-4687,PAYLOAD,2023-04-25 12:00:02,15.08817689,0.0002037,53.219,304.1558,89.7994,270.3232,-0.0002008,-3.481e-05,0.0,0 STARLINK-4687,1 53784U 22111M   23115.50002989 -.00003481  00000-0 -20080-3 0  9990,2 53784  53.2190 304.1558 0002037  89.7994 270.3232 15.08817689 35306,6917.949,95.439,541.223,538.404,0.0
53784.0,STARLINK-4687,PAYLOAD,2023-04-26 11:50:50,15.08828655,0.0001383,53.216,299.6938,85.6111,274.5039,-1.3757e-05,-5.07e-06,0.0,0 STARLINK-4687,1 53784U 22111M   23116.49363527 -.00000507  00000-0 -13757-4 0  9997,2 53784  53.2160 299.6938 0001383  85.6111 274.5039 15.08828655 34644,6917.915,95.438,540.737,538.823,0.0
53784.0,STARLINK-4687,PAYLOAD,2023-04-26 18:12:22,15.08830086,0.0001216,53.2148,298.5051,88.1517,271.9614,4.8984e-05,4.92e-06,0.0,0 STARLINK-4687,1 53784U 22111M   23116.75859689  .00000492  00000-0  48984-4 0  9996,2 53784  53.2148 298.5051 0001216  88.1517 271.9614 15.08830086 35492,6917.911,95.438,540.617,538.934,0.0
53784.0,STARLINK-4687,PAYLOAD,2023-04-27 11:41:36,15.08842334,0.0001306,53.2168,295.2326,91.4663,268.6479,0.00035888,5.429e-05,0.0,0 STARLINK-4687,1 53784U 22111M   23117.48722824  .00005429  00000-0  35888-3 0  9990,2 53784  53.2168 295.2326 0001306  91.4663 268.6479 15.08842334 35606,6917.873,95.437,540.642,538.835,0.0
53784.0,STARLINK-4687,PAYLOAD,2023-04-28 05:10:50,15.08862989,0.0002188,53.2231,291.9677,63.4484,296.6733,-0.00035826,-5.989e-05,0.0,0 STARLINK-4687,1 53784U 22111M   23118.21585949 -.00005989  00000-0 -35826-3 0  9992,2 53784  53.2231 291.9677 0002188  63.4484 296.6733 15.08862989 34902,6917.81,95.436,541.189,538.162,0.0
53784.0,STARLINK-4687,PAYLOAD,2023-04-28 17:53:56,15.08838171,0.0001907,53.2119,289.5838,92.8284,267.2927,6.6882e-05,7.76e-06,0.0,0 STARLINK-4687,1 53784U 22111M   23118.74579341  .00000776  00000-0  66882-4 0  9993,2 53784  53.2119 289.5838 0001907  92.8284 267.2927 15.08838171 34984,6917.886,95.438,541.07,538.432,0.0
53784.0,STARLINK-4687,PAYLOAD,2023-04-29 11:23:10,15.08854223,0.0001244,53.2154,286.3119,86.6626,273.4508,6.0246e-05,6.71e-06,0.0,0 STARLINK-4687,1 53784U 22111M   23119.47442274  .00000671  00000-0  60246-4 0  9990,2 53784  53.2154 286.3119 0001244  86.6626 273.4508 15.08854223 35098,6917.837,95.437,540.562,538.841,0.0
53784.0,STARLINK-4687,PAYLOAD,2023-04-29 20:55:27,15.08872522,0.0001427,53.2164,284.5278,98.991,261.1244,0.00052216,8.039e-05,0.0,0 STARLINK-4687,1 53784U 22111M   23119.87185140  .00008039  00000-0  52216-3 0  9993,2 53784  53.2164 284.5278 0001427  98.9910 261.1244 15.08872522 35150,6917.781,95.435,540.633,538.659,0.0
53784.0,STARLINK-4687,PAYLOAD,2023-04-30 11:13:57,15.08843543,0.0001493,53.2164,281.8513,98.6449,261.4713,0.00013732,1.898e-05,0.0,0 STARLINK-4687,1 53784U 22111M   23120.46802109  .00001898  00000-0  13732-3 0  9997,2 53784  53.2164 281.8513 0001493  98.6449 261.4713 15.08843543 36054,6917.87,95.437,540.767,538.702,0.0
53784.0,STARLINK-4687,PAYLOAD,2023-04-30 14:24:43,15.08847439,0.00015,53.2163,281.2569,100.7286,259.3875,0.0001997,2.892e-05,0.0,0 STARLINK-4687,1 53784U 22111M   23120.60049976  .00002892  00000-0  19970-3 0  9993,2 53784  53.2163 281.2569 0001500 100.7286 259.3875 15.08847439 35266,6917.858,95.437,540.76,538.685,0.0
53784.0,STARLINK-4687,PAYLOAD,2023-04-30 22:21:38,15.0885882,0.0001379,53.2157,279.7698,101.0374,259.0774,0.00033895,5.113e-05,0.0,0 STARLINK-4687,1 53784U 22111M   23120.93169270  .00005113  00000-0  33895-3 0  9990,2 53784  53.2157 279.7698 0001379 101.0374 259.0774 15.08858820 35317,6917.823,95.436,540.642,538.734,0.0
53784.0,STARLINK-4687,PAYLOAD,2023-05-01 11:04:44,15.08833533,0.0002118,53.2156,277.3906,92.2341,267.8893,0.00068012,0.00010551,0.0,0 STARLINK-4687,1 53784U 22111M   23121.46162210  .00010551  00000-0  68012-3 0  9997,2 53784  53.2156 277.3906 0002118  92.2341 267.8893 15.08833533 35390,6917.9,95.438,541.23,538.3,0.0
53784.0,STARLINK-4687,PAYLOAD,2023-05-01 17:26:16,15.08828098,0.0001457,53.2161,276.2015,99.1447,260.971,0.00087465,0.00013655,0.0,0 STARLINK-4687,1 53784U 22111M   23121.72658494  .00013655  00000-0  87465-3 0  9991,2 53784  53.2161 276.2015 0001457  99.1447 260.9710 15.08828098 36240,6917.917,95.438,540.79,538.774,0.0
53784.0,STARLINK-4687,PAYLOAD,2023-05-02 14:06:17,15.08850999,0.0001402,53.2157,272.335,98.7115,261.4036,0.00078754,0.00012272,0.0,0 STARLINK-4687,1 53784U 22111M   23122.58770320  .00012272  00000-0  78754-3 0  9994,2 53784  53.2157 272.3350 0001402  98.7115 261.4036 15.08850999 36377,6917.847,95.437,540.682,538.742,0.0
53784.0,STARLINK-4687,PAYLOAD,2023-05-02 18:52:26,15.08858386,0.0001386,53.2159,271.4431,97.7836,262.3314,0.00088328,0.00013804,0.0,0 STARLINK-4687,1 53784U 22111M   23122.78642075  .00013804  00000-0  88328-3 0  9991,2 53784  53.2159 271.4431 0001386  97.7836 262.3314 15.08858386 35599,6917.824,95.436,540.648,538.73,0.0
53784.0,STARLINK-4687,PAYLOAD,2023-05-03 02:49:22,15.08834261,0.000108,53.2153,269.956,108.9792,251.1318,-0.00031627,-5.317e-05,0.0,0 STARLINK-4687,1 53784U 22111M   23123.11762305 -.00005317  00000-0 -31627-3 0  9990,2 53784  53.2153 269.9560 0001080 108.9792 251.1318 15.08834261 35647,6917.898,95.438,540.51,539.016,0.0
53784.0,STARLINK-4687,PAYLOAD,2023-05-03 13:57:04,15.08839382,0.000115,53.2155,267.875,104.3824,255.7296,0.0001557,2.191e-05,0.0,0 STARLINK-4687,1 53784U 22111M   23123.58130356  .00002191  00000-0  15570-3 0  9990,2 53784  53.2155 267.8750 0001150 104.3824 255.7296 15.08839382 36523,6917.882,95.438,540.543,538.952,0.0
53784.0,STARLINK-4687,PAYLOAD,2023-05-03 18:43:14,15.08845798,0.0001191,53.2155,266.9828,102.5476,257.5649,0.00056147,8.661e-05,0.0,0 STARLINK-4687,1 53784U 22111M   23123.78002349  .00008661  00000-0  56147-3 0  9995,2 53784  53.2155 266.9828 0001191 102.5476 257.5649 15.08845798 35740,6917.863,95.437,540.552,538.904,0.0
53784.0,STARLINK-4687,PAYLOAD,2023-05-04 02:40:10,15.0883512,0.0001285,53.2147,265.4975,87.5842,272.5297,0.0004164,6.344e-05,0.0,0 STARLINK-4687,1 53784U 22111M   23124.11122865  .00006344  00000-0  41640-3 0  9997,2 53784  53.2147 265.4975 0001285  87.5842 272.5297 15.08835120 35790,6917.895,95.438,540.649,538.871,0.0
53784.0,STARLINK-4687,PAYLOAD,2023-05-04 13:47:52,15.08836625,0.0001319,53.2148,263.4157,87.1721,272.9422,0.0002897,4.325e-05,0.0,0 STARLINK-4687,1 53784U 22111M   23124.57491084  .00004325  00000-0  28970-3 0  9997,2 53784  53.2148 263.4157 0001319  87.1721 272.9422 15.08836625 36674,6917.891,95.438,540.668,538.843,0.0
53784.0,STARLINK-4687,PAYLOAD,2023-05-04 18:34:01,15.08843672,0.0001297,53.2155,262.5239,86.1667,273.9473,0.00033366,5.027e-05,0.0,0 STARLINK-4687,1 53784U 22111M   23124.77362916  .00005027  00000-0  33366-3 0  9995,2 53784  53.2155 262.5239 0001297  86.1667 273.9473 15.08843672 36707,6917.869,95.437,540.631,538.837,0.0
53784.0,STARLINK-4687,PAYLOAD,2023-05-05 02:30:57,15.08839741,0.0001307,53.2159,261.0367,82.8799,277.2342,0.00028447,4.242e-05,0.0,0 STARLINK-4687,1 53784U 22111M   23125.10483177  .00004242  00000-0  28447-3 0  9998,2 53784  53.2159 261.0367 0001307  82.8799 277.2342 15.08839741 35947,6917.881,95.438,540.65,538.842,0.0
53784.0,STARLINK-4687,PAYLOAD,2023-05-05 18:24:48,15.08854907,0.0001324,53.216,258.063,80.9111,279.2031,0.00060815,9.408e-05,0.0,0 STARLINK-4687,1 53784U 22111M   23125.76722785  .00009408  00000-0  60815-3 0  9995,2 53784  53.2160 258.0630 0001324  80.9111 279.2031 15.08854907 36853,6917.835,95.437,540.616,538.784,0.0
53784.0,STARLINK-4687,PAYLOAD,2023-05-06 13:29:26,15.08847286,0.0001036,53.2154,254.4934,96.5343,263.5767,0.00028806,4.301e-05,0.0,0 STARLINK-4687,1 53784U 22111M   23126.56210780  .00004301  00000-0  28806-3 0  9992,2 53784  53.2154 254.4934 0001036  96.5343 263.5767 15.08847286 36970,6917.858,95.437,540.44,539.006,0.0
53784.0,STARLINK-4687,PAYLOAD,2023-05-06 18:15:35,15.08858062,0.0001071,53.2151,253.6005,101.8534,258.2578,0.00048745,7.482e-05,0.0,0 STARLINK-4687,1 53784U 22111M   23126.76082322  .00007482  00000-0  48745-3 0  9990,2 53784  53.2151 253.6005 0001071 101.8534 258.2578 15.08858062 36197,6917.825,95.436,540.431,538.949,0.0
53784.0,STARLINK-4687,PAYLOAD,2023-05-07 13:20:13,15.08831144,0.0001105,53.2163,250.0322,106.2275,253.8839,0.00010555,1.392e-05,0.0,0 STARLINK-4687,1 53784U 22111M   23127.55571611  .00001392  00000-0  10555-3 0  9994,2 53784  53.2163 250.0322 0001105 106.2275 253.8839 15.08831144 36319,6917.907,95.438,540.537,539.008,0.0
53784.0,STARLINK-4687,PAYLOAD,2023-05-07 14:55:37,15.08831929,0.0001039,53.2161,249.7352,104.5863,255.5245,0.00018003,2.578e-05,0.0,0 STARLINK-4687,1 53784U 22111M   23127.62195667  .00002578  00000-0  18003-3 0  9998,2 53784  53.2161 249.7352 0001039 104.5863 255.5245 15.08831929 37137,6917.905,95.438,540.489,539.051,0.0
